{"type": "FeatureCollection", "features": [ {"type": "Feature", "properties": {"norad_id": 31256, "name": "FENGYUN 1C DEB", "group": "fengyun-1c-debris", "lat": -51.88284972625109, "lon": 4.675200455571461, "alt_km": 1006.7367101700947, "timestamp": "2025-12-14T07:33:19.759424+00:00", "meta": {"OBJECT_NAME": "FENGYUN 1C DEB", "OBJECT_ID": "1999-025BMN", "EPOCH": "2025-12-12T20:15:20.871648", "MEAN_MOTION": 14.03288041, "ECCENTRICITY": 0.03084701, "INCLINATION": 98.6814, "RA_OF_ASC_NODE": 194.4983, "ARG_OF_PERICENTER": 113.6621, "MEAN_ANOMALY": 249.7243, "EPHEMERIS_TYPE": 0, "CLASSIFICATION_TYPE": "U", "NORAD_CAT_ID": 31256, "ELEMENT_SET_NO": 999, "REV_AT_EPOCH": 64983, "BSTAR": 0.0035765382, "MEAN_MOTION_DOT": 8.48e-05, "MEAN_MOTION_DDOT": 0}, "tle": {"line1": "1 31256U 99025BMN 25346.84399157  .00008480  00000+0  35765-2 0  9995", "line2": "2 31256  98.6814 194.4983 0308470 113.6621 249.7243 14.03288041649837"}}, "geometry": {"type": "Point", "coordinates": [4.675200455571461, -51.88284972625109]}}, {"type": "Feature", "properties": {"norad_id": 31258, "name": "FENGYUN 1C DEB", "group": "fengyun-1c-debris", "lat": -64.3411911984617, "lon": -61.47090870306872, "alt_km": 531.2040936230896, "timestamp": "2025-12-14T07:33:19.759434+00:00", "meta": {"OBJECT_NAME": "FENGYUN 1C DEB", "OBJECT_ID": "1999-025BMQ", "EPOCH": "2025-12-13T16:15:38.851200", "MEAN_MOTION": 15.13154471, "ECCENTRICITY": 0.00052599, "INCLINATION": 98.8477, "RA_OF_ASC_NODE": 136.711, "ARG_OF_PERICENTER": 311.3749, "MEAN_ANOMALY": 64.7326, "EPHEMERIS_TYPE": 0, "CLASSIFICATION_TYPE": "U", "NORAD_CAT_ID": 31258, "ELEMENT_SET_NO": 999, "REV_AT_EPOCH": 97125, "BSTAR": 0.013306815, "MEAN_MOTION_DOT": 0.00243892, "MEAN_MOTION_DDOT": 0}, "tle": {"line1": "1 31258U 99025BMQ 25347.67753300  .00243892  00000+0  13307-1 0  9998", "line2": "2 31258  98.8477 136.7110 0005259 311.3749  64.7326 15.13154471971256"}}, "geometry": {"type": "Point", "coordinates": [-61.47090870306872, -64.3411911984617]}}, {"type": "Feature", "properties": {"norad_id": 31259, "name": "FENGYUN 1C DEB", "group": "fengyun-1c-debris", "lat": -42.47641452131838, "lon": 75.87849525160144, "alt_km": 876.0497990057665, "timestamp": "2025-12-14T07:33:19.759444+00:00", "meta": {"OBJECT_NAME": "FENGYUN 1C DEB", "OBJECT_ID": "1999-025BMR", "EPOCH": "2025-12-13T11:29:17.750688", "MEAN_MOTION": 14.15036283, "ECCENTRICITY": 0.0065815, "INCLINATION": 99.0094, "RA_OF_ASC_NODE": 66.6822, "ARG_OF_PERICENTER": 193.9125, "MEAN_ANOMALY": 185.403, "EPHEMERIS_TYPE": 0, "CLASSIFICATION_TYPE": "U", "NORAD_CAT_ID": 31259, "ELEMENT_SET_NO": 999, "REV_AT_EPOCH": 95580, "BSTAR": 0.002686176, "MEAN_MOTION_DOT": 5.27e-05, "MEAN_MOTION_DDOT": 0}, "tle": {"line1": "1 31259U 99025BMR 25347.47867767  .00005270  00000+0  26862-2 0  9997", "line2": "2 31259  99.0094  66.6822 0065815 193.9125 185.4030 14.15036283955809"}}, "geometry": {"type": "Point", "coordinates": [75.87849525160144, -42.47641452131838]}}, {"type": "Feature", "properties": {"norad_id": 31260, "name": "FENGYUN 1C DEB", "group": "fengyun-1c-debris", "lat": 18.746969181888755, "lon": 68.38590269223528, "alt_km": 790.648481374029, "timestamp": "2025-12-14T07:33:19.759454+00:00", "meta": {"OBJECT_NAME": "FENGYUN 1C DEB", "OBJECT_ID": "1999-025BMS", "EPOCH": "2025-12-13T15:53:54.746016", "MEAN_MOTION": 14.36434861, "ECCENTRICITY": 0.00469447, "INCLINATION": 98.9562, "RA_OF_ASC_NODE": 244.6398, "ARG_OF_PERICENTER": 289.943, "MEAN_ANOMALY": 99.7736, "EPHEMERIS_TYPE": 0, "CLASSIFICATION_TYPE": "U", "NORAD_CAT_ID": 31260, "ELEMENT_SET_NO": 999, "REV_AT_EPOCH": 97207, "BSTAR": 0.0012896868, "MEAN_MOTION_DOT": 3.782e-05, "MEAN_MOTION_DDOT": 0}, "tle": {"line1": "1 31260U 99025BMS 25347.66243919  .00003782  00000+0  12897-2 0  9996", "line2": "2 31260  98.9562 244.6398 0046944 289.9430  99.7736 14.36434861972077"}}, "geometry": {"type": "Point", "coordinates": [68.38590269223528, 18.746969181888755]}}, {"type": "Feature", "properties": {"norad_id": 31261, "name": "FENGYUN 1C DEB", "group": "fengyun-1c-debris", "lat": -17.26251083798112, "lon": 118.97919255636108, "alt_km": 732.3673737940271, "timestamp": "2025-12-14T07:33:19.759464+00:00", "meta": {"OBJECT_NAME": "FENGYUN 1C DEB", "OBJECT_ID": "1999-025BMT", "EPOCH": "2025-12-13T07:17:36.200544", "MEAN_MOTION": 14.40092738, "ECCENTRICITY": 0.00499745, "INCLINATION": 99.0155, "RA_OF_ASC_NODE": 300.7433, "ARG_OF_PERICENTER": 231.1909, "MEAN_ANOMALY": 128.481, "EPHEMERIS_TYPE": 0, "CLASSIFICATION_TYPE": "U", "NORAD_CAT_ID": 31261, "ELEMENT_SET_NO": 999, "REV_AT_EPOCH": 97358, "BSTAR": 0.0016949797, "MEAN_MOTION_DOT": 5.383e-05, "MEAN_MOTION_DDOT": 0}, "tle": {"line1": "1 31261U 99025BMT 25347.30389121  .00005383  00000+0  16950-2 0  9997", "line2": "2 31261  99.0155 300.7433 0049974 231.1909 128.4810 14.40092738973586"}}, "geometry": {"type": "Point", "coordinates": [118.97919255636108, -17.26251083798112]}}, {"type": "Feature", "properties": {"norad_id": 31262, "name": "FENGYUN 1C DEB", "group": "fengyun-1c-debris", "lat": 80.73755109171898, "lon": -31.75502765479715, "alt_km": 784.2639447966121, "timestamp": "2025-12-14T07:33:19.759474+00:00", "meta": {"OBJECT_NAME": "FENGYUN 1C DEB", "OBJECT_ID": "1999-025BMU", "EPOCH": "2025-12-12T04:27:55.392192", "MEAN_MOTION": 14.18179117, "ECCENTRICITY": 0.00551106, "INCLINATION": 99.0033, "RA_OF_ASC_NODE": 69.6362, "ARG_OF_PERICENTER": 99.6223, "MEAN_ANOMALY": 290.2815, "EPHEMERIS_TYPE": 0, "CLASSIFICATION_TYPE": "U", "NORAD_CAT_ID": 31262, "ELEMENT_SET_NO": 999, "REV_AT_EPOCH": 95701, "BSTAR": 0.0026931528, "MEAN_MOTION_DOT": 5.576e-05, "MEAN_MOTION_DDOT": 0}, "tle": {"line1": "1 31262U 99025BMU 25346.18605778  .00005576  00000+0  26932-2 0  9997", "line2": "2 31262  99.0033  69.6362 0055110  99.6223 290.2815 14.18179117957014"}}, "geometry": {"type": "Point", "coordinates": [-31.75502765479715, 80.73755109171898]}}, {"type": "Feature", "properties": {"norad_id": 31263, "name": "FENGYUN 1C DEB", "group": "fengyun-1c-debris", "lat": 8.13535061887216, "lon": 94.20228418367817, "alt_km": 382.6220415392918, "timestamp": "2025-12-14T07:33:19.759484+00:00", "meta": {"OBJECT_NAME": "FENGYUN 1C DEB", "OBJECT_ID": "1999-025BMV", "EPOCH": "2025-12-13T07:41:23.477568", "MEAN_MOTION": 15.5532409, "ECCENTRICITY": 0.00241251, "INCLINATION": 98.9847, "RA_OF_ASC_NODE": 271.6551, "ARG_OF_PERICENTER": 120.5004, "MEAN_ANOMALY": 239.8632, "EPHEMERIS_TYPE": 0, "CLASSIFICATION_TYPE": "U", "NORAD_CAT_ID": 31263, "ELEMENT_SET_NO": 999, "REV_AT_EPOCH": 97175, "BSTAR": 0.026389577, "MEAN_MOTION_DOT": 0.02016968, "MEAN_MOTION_DDOT": 0}, "tle": {"line1": "1 31263U 99025BMV 25347.32041062  .02016968  00000+0  26390-1 0  9991", "line2": "2 31263  98.9847 271.6551 0024125 120.5004 239.8632 15.55324090971751"}}, "geometry": {"type": "Point", "coordinates": [94.20228418367817, 8.13535061887216]}}, {"type": "Feature", "properties": {"norad_id": 31264, "name": "FENGYUN 1C DEB", "group": "fengyun-1c-debris", "lat": 65.54493988326367, "lon": -135.32900034328424, "alt_km": 823.283046505986, "timestamp": "2025-12-14T07:33:19.759509+00:00", "meta": {"OBJECT_NAME": "FENGYUN 1C DEB", "OBJECT_ID": "1999-025BMW", "EPOCH": "2025-12-13T11:47:08.975040", "MEAN_MOTION": 14.18593263, "ECCENTRICITY": 0.0001071, "INCLINATION": 99.1141, "RA_OF_ASC_NODE": 244.4948, "ARG_OF_PERICENTER": 9.3385, "MEAN_ANOMALY": 173.4712, "EPHEMERIS_TYPE": 0, "CLASSIFICATION_TYPE": "U", "NORAD_CAT_ID": 31264, "ELEMENT_SET_NO": 999, "REV_AT_EPOCH": 96439, "BSTAR": 0.00084680361, "MEAN_MOTION_DOT": 1.707e-05, "MEAN_MOTION_DDOT": 0}, "tle": {"line1": "1 31264U 99025BMW 25347.49107610  .00001707  00000+0  84680-3 0  9993", "line2": "2 31264  99.1141 244.4948 0001071   9.3385 173.4712 14.18593263964393"}}, "geometry": {"type": "Point", "coordinates": [-135.32900034328424, 65.54493988326367]}}, {"type": "Feature", "properties": {"norad_id": 31266, "name": "FENGYUN 1C DEB", "group": "fengyun-1c-debris", "lat": 58.786948863858115, "lon": 167.04078541242802, "alt_km": 899.1934120033266, "timestamp": "2025-12-14T07:33:19.759520+00:00", "meta": {"OBJECT_NAME": "FENGYUN 1C DEB", "OBJECT_ID": "1999-025BMY", "EPOCH": "2025-12-13T05:44:02.433120", "MEAN_MOTION": 14.22336445, "ECCENTRICITY": 0.01296995, "INCLINATION": 99.257, "RA_OF_ASC_NODE": 330.2974, "ARG_OF_PERICENTER": 282.7808, "MEAN_ANOMALY": 91.6538, "EPHEMERIS_TYPE": 0, "CLASSIFICATION_TYPE": "U", "NORAD_CAT_ID": 31266, "ELEMENT_SET_NO": 999, "REV_AT_EPOCH": 97213, "BSTAR": 0.00052457623, "MEAN_MOTION_DOT": 1.221e-05, "MEAN_MOTION_DDOT": 0}, "tle": {"line1": "1 31266U 99025BMY 25347.23891705  .00001221  00000+0  52458-3 0  9991", "line2": "2 31266  99.2570 330.2974 0129699 282.7808  91.6538 14.22336445972139"}}, "geometry": {"type": "Point", "coordinates": [167.04078541242802, 58.786948863858115]}}, {"type": "Feature", "properties": {"norad_id": 31268, "name": "FENGYUN 1C DEB", "group": "fengyun-1c-debris", "lat": 5.22255938726142, "lon": -148.71874304768136, "alt_km": 837.690209892171, "timestamp": "2025-12-14T07:33:19.759530+00:00", "meta": {"OBJECT_NAME": "FENGYUN 1C DEB", "OBJECT_ID": "1999-025BNA", "EPOCH": "2025-12-13T08:31:52.756608", "MEAN_MOTION": 14.06415168, "ECCENTRICITY": 0.00499878, "INCLINATION": 98.7569, "RA_OF_ASC_NODE": 29.5459, "ARG_OF_PERICENTER": 181.4384, "MEAN_ANOMALY": 178.6649, "EPHEMERIS_TYPE": 0, "CLASSIFICATION_TYPE": "U", "NORAD_CAT_ID": 31268, "ELEMENT_SET_NO": 999, "REV_AT_EPOCH": 62041, "BSTAR": 0.00099988846, "MEAN_MOTION_DOT": 1.628e-05, "MEAN_MOTION_DDOT": 0}, "tle": {"line1": "1 31268U 99025BNA 25347.35547172  .00001628  00000+0  99989-3 0  9993", "line2": "2 31268  98.7569  29.5459 0049987 181.4384 178.6649 14.06415168620416"}}, "geometry": {"type": "Point", "coordinates": [-148.71874304768136, 5.22255938726142]}}]}